line_1,city,state,zip
7230 SW 138th Ct,Miami,FL,33183
7485 SW 60Th St,Miami,FL,33142
1510 Blake St,Denver,CO,80202
1550 Court Pl,Denver,CO,80202
1470 Grant St,Denver,CO,80203
46 Evergreen Dr,Evergreen,CO,80439
Meadow Mountain Rd,Evergreen,CO,80439
112 N Burleson Blvd,Burleson,TX,76028
105 NW Jill Ann Dr,Burleson,TX,76028
124 Golden Gate Ave,San Francisco,CA,94102
82 Spear St,San Francisco,CA,94105
7230 SW 138th Ct,Miami,FL,33183
7485 SW 60Th St,Miami,FL,33142
1510 Blake St,Denver,CO,80202
1550 Court Pl,Denver,CO,80202
1470 Grant St,Denver,CO,80203
46 Evergreen Dr,Evergreen,CO,80439
Meadow Mountain Rd,Evergreen,CO,80439
112 N Burleson Blvd,Burleson,TX,76028
105 NW Jill Ann Dr,Burleson,TX,76028
124 Golden Gate Ave,San Francisco,CA,94102
82 Spear St,San Francisco,CA,94105
7230 SW 138th Ct,Miami,FL,33183
7485 SW 60Th St,Miami,FL,33142
1510 Blake St,Denver,CO,80202
1550 Court Pl,Denver,CO,80202
1470 Grant St,Denver,CO,80203
46 Evergreen Dr,Evergreen,CO,80439
Meadow Mountain Rd,Evergreen,CO,80439
112 N Burleson Blvd,Burleson,TX,76028
105 NW Jill Ann Dr,Burleson,TX,76028
124 Golden Gate Ave,San Francisco,CA,94102
82 Spear St,San Francisco,CA,94105
7230 SW 138th Ct,Miami,FL,33183
7485 SW 60Th St,Miami,FL,33142
1510 Blake St,Denver,CO,80202
1550 Court Pl,Denver,CO,80202
1470 Grant St,Denver,CO,80203
46 Evergreen Dr,Evergreen,CO,80439
Meadow Mountain Rd,Evergreen,CO,80439
112 N Burleson Blvd,Burleson,TX,76028
105 NW Jill Ann Dr,Burleson,TX,76028
124 Golden Gate Ave,San Francisco,CA,94102
82 Spear St,San Francisco,CA,94105
7230 SW 138th Ct,Miami,FL,33183
7485 SW 60Th St,Miami,FL,33142
1510 Blake St,Denver,CO,80202
1550 Court Pl,Denver,CO,80202
1470 Grant St,Denver,CO,80203
46 Evergreen Dr,Evergreen,CO,80439
Meadow Mountain Rd,Evergreen,CO,80439
112 N Burleson Blvd,Burleson,TX,76028
105 NW Jill Ann Dr,Burleson,TX,76028
124 Golden Gate Ave,San Francisco,CA,94102
82 Spear St,San Francisco,CA,94105
7230 SW 138th Ct,Miami,FL,33183
7485 SW 60Th St,Miami,FL,33142
1510 Blake St,Denver,CO,80202
1550 Court Pl,Denver,CO,80202
1470 Grant St,Denver,CO,80203
46 Evergreen Dr,Evergreen,CO,80439
Meadow Mountain Rd,Evergreen,CO,80439
112 N Burleson Blvd,Burleson,TX,76028
105 NW Jill Ann Dr,Burleson,TX,76028
124 Golden Gate Ave,San Francisco,CA,94102
82 Spear St,San Francisco,CA,94105
7230 SW 138th Ct,Miami,FL,33183
7485 SW 60Th St,Miami,FL,33142
1510 Blake St,Denver,CO,80202
1550 Court Pl,Denver,CO,80202
1470 Grant St,Denver,CO,80203
46 Evergreen Dr,Evergreen,CO,80439
Meadow Mountain Rd,Evergreen,CO,80439
112 N Burleson Blvd,Burleson,TX,76028
105 NW Jill Ann Dr,Burleson,TX,76028
124 Golden Gate Ave,San Francisco,CA,94102
82 Spear St,San Francisco,CA,94105
7230 SW 138th Ct,Miami,FL,33183
7485 SW 60Th St,Miami,FL,33142
1510 Blake St,Denver,CO,80202
1550 Court Pl,Denver,CO,80202
1470 Grant St,Denver,CO,80203
46 Evergreen Dr,Evergreen,CO,80439
Meadow Mountain Rd,Evergreen,CO,80439
112 N Burleson Blvd,Burleson,TX,76028
105 NW Jill Ann Dr,Burleson,TX,76028
124 Golden Gate Ave,San Francisco,CA,94102
82 Spear St,San Francisco,CA,94105
7230 SW 138th Ct,Miami,FL,33183
7485 SW 60Th St,Miami,FL,33142
1510 Blake St,Denver,CO,80202
1550 Court Pl,Denver,CO,80202
1470 Grant St,Denver,CO,80203
46 Evergreen Dr,Evergreen,CO,80439
Meadow Mountain Rd,Evergreen,CO,80439
112 N Burleson Blvd,Burleson,TX,76028
105 NW Jill Ann Dr,Burleson,TX,76028
124 Golden Gate Ave,San Francisco,CA,94102
82 Spear St,San Francisco,CA,94105
7230 SW 138th Ct,Miami,FL,33183
7485 SW 60Th St,Miami,FL,33142
1510 Blake St,Denver,CO,80202
1550 Court Pl,Denver,CO,80202
1470 Grant St,Denver,CO,80203
46 Evergreen Dr,Evergreen,CO,80439
Meadow Mountain Rd,Evergreen,CO,80439
112 N Burleson Blvd,Burleson,TX,76028
105 NW Jill Ann Dr,Burleson,TX,76028
124 Golden Gate Ave,San Francisco,CA,94102
82 Spear St,San Francisco,CA,94105
7230 SW 138th Ct,Miami,FL,33183
7485 SW 60Th St,Miami,FL,33142
1510 Blake St,Denver,CO,80202
1550 Court Pl,Denver,CO,80202
1470 Grant St,Denver,CO,80203
46 Evergreen Dr,Evergreen,CO,80439
Meadow Mountain Rd,Evergreen,CO,80439
112 N Burleson Blvd,Burleson,TX,76028
105 NW Jill Ann Dr,Burleson,TX,76028
124 Golden Gate Ave,San Francisco,CA,94102
82 Spear St,San Francisco,CA,94105
7230 SW 138th Ct,Miami,FL,33183
7485 SW 60Th St,Miami,FL,33142
1510 Blake St,Denver,CO,80202
1550 Court Pl,Denver,CO,80202
1470 Grant St,Denver,CO,80203
46 Evergreen Dr,Evergreen,CO,80439
Meadow Mountain Rd,Evergreen,CO,80439
112 N Burleson Blvd,Burleson,TX,76028
105 NW Jill Ann Dr,Burleson,TX,76028
124 Golden Gate Ave,San Francisco,CA,94102
82 Spear St,San Francisco,CA,94105
7230 SW 138th Ct,Miami,FL,33183
7485 SW 60Th St,Miami,FL,33142
1510 Blake St,Denver,CO,80202
1550 Court Pl,Denver,CO,80202
1470 Grant St,Denver,CO,80203
46 Evergreen Dr,Evergreen,CO,80439
Meadow Mountain Rd,Evergreen,CO,80439
112 N Burleson Blvd,Burleson,TX,76028
105 NW Jill Ann Dr,Burleson,TX,76028
124 Golden Gate Ave,San Francisco,CA,94102
82 Spear St,San Francisco,CA,94105
7230 SW 138th Ct,Miami,FL,33183
7485 SW 60Th St,Miami,FL,33142
1510 Blake St,Denver,CO,80202
1550 Court Pl,Denver,CO,80202
1470 Grant St,Denver,CO,80203
46 Evergreen Dr,Evergreen,CO,80439
Meadow Mountain Rd,Evergreen,CO,80439
112 N Burleson Blvd,Burleson,TX,76028
105 NW Jill Ann Dr,Burleson,TX,76028
124 Golden Gate Ave,San Francisco,CA,94102
82 Spear St,San Francisco,CA,94105
7230 SW 138th Ct,Miami,FL,33183
7485 SW 60Th St,Miami,FL,33142
1510 Blake St,Denver,CO,80202
1550 Court Pl,Denver,CO,80202
1470 Grant St,Denver,CO,80203
46 Evergreen Dr,Evergreen,CO,80439
Meadow Mountain Rd,Evergreen,CO,80439
112 N Burleson Blvd,Burleson,TX,76028
105 NW Jill Ann Dr,Burleson,TX,76028
124 Golden Gate Ave,San Francisco,CA,94102
82 Spear St,San Francisco,CA,94105
7230 SW 138th Ct,Miami,FL,33183
7485 SW 60Th St,Miami,FL,33142
1510 Blake St,Denver,CO,80202
1550 Court Pl,Denver,CO,80202
1470 Grant St,Denver,CO,80203
46 Evergreen Dr,Evergreen,CO,80439
Meadow Mountain Rd,Evergreen,CO,80439
112 N Burleson Blvd,Burleson,TX,76028
105 NW Jill Ann Dr,Burleson,TX,76028
124 Golden Gate Ave,San Francisco,CA,94102
82 Spear St,San Francisco,CA,94105
7230 SW 138th Ct,Miami,FL,33183
7485 SW 60Th St,Miami,FL,33142
1510 Blake St,Denver,CO,80202
1550 Court Pl,Denver,CO,80202
1470 Grant St,Denver,CO,80203
46 Evergreen Dr,Evergreen,CO,80439
Meadow Mountain Rd,Evergreen,CO,80439
112 N Burleson Blvd,Burleson,TX,76028
105 NW Jill Ann Dr,Burleson,TX,76028
124 Golden Gate Ave,San Francisco,CA,94102
82 Spear St,San Francisco,CA,94105
7230 SW 138th Ct,Miami,FL,33183
7485 SW 60Th St,Miami,FL,33142
1510 Blake St,Denver,CO,80202
1550 Court Pl,Denver,CO,80202
1470 Grant St,Denver,CO,80203
46 Evergreen Dr,Evergreen,CO,80439
Meadow Mountain Rd,Evergreen,CO,80439
112 N Burleson Blvd,Burleson,TX,76028
105 NW Jill Ann Dr,Burleson,TX,76028
124 Golden Gate Ave,San Francisco,CA,94102
82 Spear St,San Francisco,CA,94105
7230 SW 138th Ct,Miami,FL,33183
7485 SW 60Th St,Miami,FL,33142
1510 Blake St,Denver,CO,80202
1550 Court Pl,Denver,CO,80202
1470 Grant St,Denver,CO,80203
46 Evergreen Dr,Evergreen,CO,80439
Meadow Mountain Rd,Evergreen,CO,80439
112 N Burleson Blvd,Burleson,TX,76028
105 NW Jill Ann Dr,Burleson,TX,76028
124 Golden Gate Ave,San Francisco,CA,94102
82 Spear St,San Francisco,CA,94105
7230 SW 138th Ct,Miami,FL,33183
7485 SW 60Th St,Miami,FL,33142
1510 Blake St,Denver,CO,80202
1550 Court Pl,Denver,CO,80202
1470 Grant St,Denver,CO,80203
46 Evergreen Dr,Evergreen,CO,80439
Meadow Mountain Rd,Evergreen,CO,80439
112 N Burleson Blvd,Burleson,TX,76028
105 NW Jill Ann Dr,Burleson,TX,76028
124 Golden Gate Ave,San Francisco,CA,94102
82 Spear St,San Francisco,CA,94105
7230 SW 138th Ct,Miami,FL,33183
7485 SW 60Th St,Miami,FL,33142
1510 Blake St,Denver,CO,80202
1550 Court Pl,Denver,CO,80202
1470 Grant St,Denver,CO,80203
46 Evergreen Dr,Evergreen,CO,80439
Meadow Mountain Rd,Evergreen,CO,80439
112 N Burleson Blvd,Burleson,TX,76028
105 NW Jill Ann Dr,Burleson,TX,76028
124 Golden Gate Ave,San Francisco,CA,94102
82 Spear St,San Francisco,CA,94105
7230 SW 138th Ct,Miami,FL,33183
7485 SW 60Th St,Miami,FL,33142
1510 Blake St,Denver,CO,80202
1550 Court Pl,Denver,CO,80202
1470 Grant St,Denver,CO,80203
46 Evergreen Dr,Evergreen,CO,80439
Meadow Mountain Rd,Evergreen,CO,80439
112 N Burleson Blvd,Burleson,TX,76028
105 NW Jill Ann Dr,Burleson,TX,76028
124 Golden Gate Ave,San Francisco,CA,94102
82 Spear St,San Francisco,CA,94105
7230 SW 138th Ct,Miami,FL,33183
7485 SW 60Th St,Miami,FL,33142
1510 Blake St,Denver,CO,80202
1550 Court Pl,Denver,CO,80202
1470 Grant St,Denver,CO,80203
46 Evergreen Dr,Evergreen,CO,80439
Meadow Mountain Rd,Evergreen,CO,80439
112 N Burleson Blvd,Burleson,TX,76028
105 NW Jill Ann Dr,Burleson,TX,76028
124 Golden Gate Ave,San Francisco,CA,94102
82 Spear St,San Francisco,CA,94105
7230 SW 138th Ct,Miami,FL,33183
7485 SW 60Th St,Miami,FL,33142
1510 Blake St,Denver,CO,80202
1550 Court Pl,Denver,CO,80202
1470 Grant St,Denver,CO,80203
46 Evergreen Dr,Evergreen,CO,80439
Meadow Mountain Rd,Evergreen,CO,80439
112 N Burleson Blvd,Burleson,TX,76028
105 NW Jill Ann Dr,Burleson,TX,76028
124 Golden Gate Ave,San Francisco,CA,94102
82 Spear St,San Francisco,CA,94105
7230 SW 138th Ct,Miami,FL,33183
7485 SW 60Th St,Miami,FL,33142
1510 Blake St,Denver,CO,80202
1550 Court Pl,Denver,CO,80202
1470 Grant St,Denver,CO,80203
46 Evergreen Dr,Evergreen,CO,80439
Meadow Mountain Rd,Evergreen,CO,80439
112 N Burleson Blvd,Burleson,TX,76028
105 NW Jill Ann Dr,Burleson,TX,76028
124 Golden Gate Ave,San Francisco,CA,94102
82 Spear St,San Francisco,CA,94105
7230 SW 138th Ct,Miami,FL,33183
7485 SW 60Th St,Miami,FL,33142
1510 Blake St,Denver,CO,80202
1550 Court Pl,Denver,CO,80202
1470 Grant St,Denver,CO,80203
46 Evergreen Dr,Evergreen,CO,80439
Meadow Mountain Rd,Evergreen,CO,80439
112 N Burleson Blvd,Burleson,TX,76028
105 NW Jill Ann Dr,Burleson,TX,76028
124 Golden Gate Ave,San Francisco,CA,94102
82 Spear St,San Francisco,CA,94105
7230 SW 138th Ct,Miami,FL,33183
7485 SW 60Th St,Miami,FL,33142
1510 Blake St,Denver,CO,80202
1550 Court Pl,Denver,CO,80202
1470 Grant St,Denver,CO,80203
46 Evergreen Dr,Evergreen,CO,80439
Meadow Mountain Rd,Evergreen,CO,80439
112 N Burleson Blvd,Burleson,TX,76028
105 NW Jill Ann Dr,Burleson,TX,76028
124 Golden Gate Ave,San Francisco,CA,94102
82 Spear St,San Francisco,CA,94105
7230 SW 138th Ct,Miami,FL,33183
7485 SW 60Th St,Miami,FL,33142
1510 Blake St,Denver,CO,80202
1550 Court Pl,Denver,CO,80202
1470 Grant St,Denver,CO,80203
46 Evergreen Dr,Evergreen,CO,80439
Meadow Mountain Rd,Evergreen,CO,80439
112 N Burleson Blvd,Burleson,TX,76028
105 NW Jill Ann Dr,Burleson,TX,76028
124 Golden Gate Ave,San Francisco,CA,94102
82 Spear St,San Francisco,CA,94105
7230 SW 138th Ct,Miami,FL,33183
7485 SW 60Th St,Miami,FL,33142
1510 Blake St,Denver,CO,80202
1550 Court Pl,Denver,CO,80202
1470 Grant St,Denver,CO,80203
46 Evergreen Dr,Evergreen,CO,80439
Meadow Mountain Rd,Evergreen,CO,80439
112 N Burleson Blvd,Burleson,TX,76028
105 NW Jill Ann Dr,Burleson,TX,76028
124 Golden Gate Ave,San Francisco,CA,94102
82 Spear St,San Francisco,CA,94105
7230 SW 138th Ct,Miami,FL,33183
7485 SW 60Th St,Miami,FL,33142
1510 Blake St,Denver,CO,80202
1550 Court Pl,Denver,CO,80202
1470 Grant St,Denver,CO,80203
46 Evergreen Dr,Evergreen,CO,80439
Meadow Mountain Rd,Evergreen,CO,80439
112 N Burleson Blvd,Burleson,TX,76028
105 NW Jill Ann Dr,Burleson,TX,76028
124 Golden Gate Ave,San Francisco,CA,94102
82 Spear St,San Francisco,CA,94105
7230 SW 138th Ct,Miami,FL,33183
7485 SW 60Th St,Miami,FL,33142
1510 Blake St,Denver,CO,80202
1550 Court Pl,Denver,CO,80202
1470 Grant St,Denver,CO,80203
46 Evergreen Dr,Evergreen,CO,80439
Meadow Mountain Rd,Evergreen,CO,80439
112 N Burleson Blvd,Burleson,TX,76028
105 NW Jill Ann Dr,Burleson,TX,76028
124 Golden Gate Ave,San Francisco,CA,94102
82 Spear St,San Francisco,CA,94105
7230 SW 138th Ct,Miami,FL,33183
7485 SW 60Th St,Miami,FL,33142
1510 Blake St,Denver,CO,80202
1550 Court Pl,Denver,CO,80202
1470 Grant St,Denver,CO,80203
46 Evergreen Dr,Evergreen,CO,80439
Meadow Mountain Rd,Evergreen,CO,80439
112 N Burleson Blvd,Burleson,TX,76028
105 NW Jill Ann Dr,Burleson,TX,76028
124 Golden Gate Ave,San Francisco,CA,94102
82 Spear St,San Francisco,CA,94105
7230 SW 138th Ct,Miami,FL,33183
7485 SW 60Th St,Miami,FL,33142
1510 Blake St,Denver,CO,80202
1550 Court Pl,Denver,CO,80202
1470 Grant St,Denver,CO,80203
46 Evergreen Dr,Evergreen,CO,80439
Meadow Mountain Rd,Evergreen,CO,80439
112 N Burleson Blvd,Burleson,TX,76028
105 NW Jill Ann Dr,Burleson,TX,76028
124 Golden Gate Ave,San Francisco,CA,94102
82 Spear St,San Francisco,CA,94105
7230 SW 138th Ct,Miami,FL,33183
7485 SW 60Th St,Miami,FL,33142
1510 Blake St,Denver,CO,80202
1550 Court Pl,Denver,CO,80202
1470 Grant St,Denver,CO,80203
46 Evergreen Dr,Evergreen,CO,80439
Meadow Mountain Rd,Evergreen,CO,80439
112 N Burleson Blvd,Burleson,TX,76028
105 NW Jill Ann Dr,Burleson,TX,76028
124 Golden Gate Ave,San Francisco,CA,94102
82 Spear St,San Francisco,CA,94105
7230 SW 138th Ct,Miami,FL,33183
7485 SW 60Th St,Miami,FL,33142
1510 Blake St,Denver,CO,80202
1550 Court Pl,Denver,CO,80202
1470 Grant St,Denver,CO,80203
46 Evergreen Dr,Evergreen,CO,80439
Meadow Mountain Rd,Evergreen,CO,80439
112 N Burleson Blvd,Burleson,TX,76028
105 NW Jill Ann Dr,Burleson,TX,76028
124 Golden Gate Ave,San Francisco,CA,94102
82 Spear St,San Francisco,CA,94105
7230 SW 138th Ct,Miami,FL,33183
7485 SW 60Th St,Miami,FL,33142
1510 Blake St,Denver,CO,80202
1550 Court Pl,Denver,CO,80202
1470 Grant St,Denver,CO,80203
46 Evergreen Dr,Evergreen,CO,80439
Meadow Mountain Rd,Evergreen,CO,80439
112 N Burleson Blvd,Burleson,TX,76028
105 NW Jill Ann Dr,Burleson,TX,76028
124 Golden Gate Ave,San Francisco,CA,94102
82 Spear St,San Francisco,CA,94105
7230 SW 138th Ct,Miami,FL,33183
7485 SW 60Th St,Miami,FL,33142
1510 Blake St,Denver,CO,80202
1550 Court Pl,Denver,CO,80202
1470 Grant St,Denver,CO,80203
46 Evergreen Dr,Evergreen,CO,80439
Meadow Mountain Rd,Evergreen,CO,80439
112 N Burleson Blvd,Burleson,TX,76028
105 NW Jill Ann Dr,Burleson,TX,76028
124 Golden Gate Ave,San Francisco,CA,94102
82 Spear St,San Francisco,CA,94105
